GPS BIIR-2  (PRN 13)    
1 24876U 97035A   16249.37671231  .00000022  00000-0  00000+0 0  9996
2 24876  55.6311 238.3289 0038119 114.1246 246.2645  2.00562311140112
GPS BIIR-3  (PRN 11)    
1 25933U 99055A   16249.48499148 -.00000035  00000-0  00000+0 0  9997
2 25933  51.4400  90.1299 0165535  89.8225 276.4519  2.00562629123931
GPS BIIR-4  (PRN 20)    
1 26360U 00025A   16249.53125295 -.00000008  00000-0  00000+0 0  9996
2 26360  53.0805 166.7659 0044709  81.6853  54.0871  2.00549320119624
GPS BIIR-5  (PRN 28)    
1 26407U 00040A   16249.48887425 -.00000085  00000-0  00000+0 0  9994
2 26407  56.6916 356.2479 0201004 267.5890 122.3214  2.00569280118304
GPS BIIR-6  (PRN 14)    
1 26605U 00071A   16249.37830315  .00000021  00000-0  00000+0 0  9991
2 26605  55.2011 236.1696 0091538 248.5836 328.3771  2.00519104115897
GPS BIIR-7  (PRN 18)    
1 26690U 01004A   16249.30674341 -.00000006  00000-0  00000+0 0  9994
2 26690  53.0065 169.7353 0174827 253.5671  31.2579  2.00558440114300
GPS BIIR-8  (PRN 16)    
1 27663U 03005A   16249.33802252 -.00000085  00000-0  00000+0 0  9992
2 27663  56.7642 355.9766 0085789  20.8623  17.6690  2.00577705 99667
GPS BIIR-9  (PRN 21)    
1 27704U 03010A   16249.23829876 -.00000022  00000-0  00000+0 0  9995
2 27704  53.6993 110.0586 0235916 259.1017  37.2725  2.00577070 98460
GPS BIIR-10 (PRN 22)    
1 28129U 03058A   16249.07546993 -.00000007  00000-0  00000+0 0  9990
2 28129  52.8884 169.7702 0077082 253.3706 105.8021  2.00555692 93150
GPS BIIR-11 (PRN 19)    
1 28190U 04009A   16249.06785403 -.00000047  00000-0  00000+0 0  9999
2 28190  55.8417  57.2219 0104078  48.1984 308.9236  2.00569175 91334
GPS BIIR-12 (PRN 23)    
1 28361U 04023A   16249.45122495  .00000020  00000-0  00000+0 0  9994
2 28361  54.1765 231.5684 0112928 215.7972 331.6519  2.00569485 89425
GPS BIIR-13 (PRN 02)    
1 28474U 04045A   16249.41575924 -.00000022  00000-0  00000+0 0  9991
2 28474  54.0861 109.4072 0160905 240.6985 284.4572  2.00568656 86788
GPS BIIRM-1 (PRN 17)    
1 28874U 05038A   16249.49090411 -.00000046  00000-0  00000+0 0  9995
2 28874  56.0059  54.4260 0113524 250.0428  74.5173  2.00556145 80197
GPS BIIRM-2 (PRN 31)    
1 29486U 06042A   16249.32101824 -.00000034  00000-0  00000+0 0  9991
2 29486  55.5825 293.6780 0083928 336.4649 143.7255  2.00579018 72908
GPS BIIRM-3 (PRN 12)    
1 29601U 06052A   16248.59789019 -.00000087  00000-0  00000-0 0  9996
2 29601  56.7356 354.9280 0058889  43.6453 316.8425  2.00565109 71753
GPS BIIRM-4 (PRN 15)    
1 32260U 07047A   16248.41010078  .00000007  00000-0  00000+0 0  9999
2 32260  53.3047 228.2113 0083007  27.0722 333.3322  2.00564844 65186
GPS BIIRM-5 (PRN 29)    
1 32384U 07062A   16248.18267730 -.00000052  00000-0  00000+0 0  9997
2 32384  56.0628  55.0405 0006063 344.2417 347.2040  2.00554395 63909
GPS BIIRM-6 (PRN 07)    
1 32711U 08012A   16249.31912734 -.00000033  00000-0  00000+0 0  9993
2 32711  55.3074 293.1165 0100831 210.0481 149.4335  2.00568835 62123
GPS BIIRM-8 (PRN 05)    
1 35752U 09043A   16249.50740641 -.00000003  00000-0  00000+0 0  9990
2 35752  54.2281 171.0611 0046198  25.9825 135.6161  2.00572987 51708
GPS BIIF-1  (PRN 25)    
1 36585U 10022A   16249.20262449 -.00000087  00000-0  00000+0 0  9998
2 36585  56.0559 351.9191 0054264  43.6299   2.8611  2.00560562 45948
GPS BIIF-2  (PRN 01)    
1 37753U 11036A   16249.50703654 -.00000019  00000-0  00000+0 0  9998
2 37753  55.3000 112.1368 0057419  28.9918 327.5608  2.00559946 37635
GPS BIIF-3  (PRN 24)    
1 38833U 12053A   16249.00151347 -.00000033  00000-0  00000+0 0  9995
2 38833  54.3374 290.3275 0045171  20.0833 340.1576  2.00556870 28701
GPS BIIF-4  (PRN 27)    
1 39166U 13023A   16249.35978237 -.00000051  00000-0  00000+0 0  9996
2 39166  55.7161  51.5386 0037351  16.6009 343.5384  2.00566798 24235
GPS BIIF-5  (PRN 30)    
1 39533U 14008A   16249.35545296 -.00000039  00000-0  00000+0 0  9999
2 39533  54.4925 295.5620 0024043 184.8280 175.2143  2.00551707 18602
GPS BIIF-6  (PRN 06)    
1 39741U 14026A   16249.14232690 -.00000018  00000-0  00000+0 0  9995
2 39741  55.2891 111.6696 0004499 273.5041  86.5334  2.00553585 16878
GPS BIIF-7  (PRN 09)    
1 40105U 14045A   16249.22771949  .00000019  00000-0  00000+0 0  9996
2 40105  54.6970 231.3310 0003325 138.2216 221.7844  2.00549622 15321
GPS BIIF-8  (PRN 03)    
1 40294U 14068A   16249.10396200 -.00000002  00000-0  00000+0 0  9993
2 40294  54.9708 171.8366 0002762 303.4427  56.5478  2.00568671 13549
GPS BIIF-9  (PRN 26)    
1 40534U 15013A   16249.24594963 -.00000089  00000-0  00000+0 0  9997
2 40534  55.0199 351.3020 0009803 343.9340  16.0660  2.00575663 10618
GPS BIIF-10  (PRN 08)   
1 40730U 15033A   16249.40285563 -.00000052  00000-0  00000+0 0  9998
2 40730  55.2523  51.3372 0019052 297.7141  62.1104  2.00555697  8378
GPS BIIF-11  (PRN 10)   
1 41019U 15062A   16248.45672466 -.00000004  00000-0  00000-0 0  9995
2 41019  54.9834 171.6378 0017858 205.3178 154.6090  2.00562689  6175
GPS BIIF-12  (PRN 32)   
1 41328U 16007A   16249.04104766  .00000018  00000-0  00000+0 0  9990
2 41328  54.9589 231.4469 0008358 238.1897 121.7092  2.00567239  4247
